{"type": "FeatureCollection", "features": [ {"type": "Feature", "properties": {"norad_id": 66520, "name": "STARLINK-35952", "group": "last-30-days", "lat": 24.286426880967277, "lon": -105.65514983129493, "alt_km": 343.2975752813536, "timestamp": "2025-12-04T09:47:36.302604+00:00", "meta": {"OBJECT_NAME": "STARLINK-35952", "OBJECT_ID": "2025-265E", "EPOCH": "2025-12-03T22:00:03.000096", "MEAN_MOTION": 15.75410115, "ECCENTRICITY": 0.0001704, "INCLINATION": 42.9994, "RA_OF_ASC_NODE": 106.2895, "ARG_OF_PERICENTER": 272.7719, "MEAN_ANOMALY": 320.7919, "EPHEMERIS_TYPE": 0, "CLASSIFICATION_TYPE": "U", "NORAD_CAT_ID": 66520, "ELEMENT_SET_NO": 999, "REV_AT_EPOCH": 357, "BSTAR": -0.0063980728, "MEAN_MOTION_DOT": -0.0089907, "MEAN_MOTION_DDOT": 0}, "tle": {"line1": "1 66520U 25265E   25337.91670139 -.00899070  00000+0 -63981-2 0  9998", "line2": "2 66520  42.9994 106.2895 0001704 272.7719 320.7919 15.75410115  3572"}}, "geometry": {"type": "Point", "coordinates": [-105.65514983129493, 24.286426880967277]}}, {"type": "Feature", "properties": {"norad_id": 66521, "name": "STARLINK-35915", "group": "last-30-days", "lat": 23.139884749499164, "lon": -103.99559077001278, "alt_km": 343.41862430367473, "timestamp": "2025-12-04T09:47:36.302615+00:00", "meta": {"OBJECT_NAME": "STARLINK-35915", "OBJECT_ID": "2025-265F", "EPOCH": "2025-12-03T22:00:03.000096", "MEAN_MOTION": 15.75386015, "ECCENTRICITY": 0.00017488, "INCLINATION": 42.9995, "RA_OF_ASC_NODE": 106.2843, "ARG_OF_PERICENTER": 270.2689, "MEAN_ANOMALY": 325.2228, "EPHEMERIS_TYPE": 0, "CLASSIFICATION_TYPE": "U", "NORAD_CAT_ID": 66521, "ELEMENT_SET_NO": 999, "REV_AT_EPOCH": 357, "BSTAR": -0.0062394427, "MEAN_MOTION_DOT": -0.00878105, "MEAN_MOTION_DDOT": 0}, "tle": {"line1": "1 66521U 25265F   25337.91670139 -.00878105  00000+0 -62394-2 0  9992", "line2": "2 66521  42.9995 106.2843 0001748 270.2689 325.2228 15.75386015  3578"}}, "geometry": {"type": "Point", "coordinates": [-103.99559077001278, 23.139884749499164]}}, {"type": "Feature", "properties": {"norad_id": 66522, "name": "STARLINK-35946", "group": "last-30-days", "lat": 21.968901429160532, "lon": -102.35418524083005, "alt_km": 343.60056956273183, "timestamp": "2025-12-04T09:47:36.302625+00:00", "meta": {"OBJECT_NAME": "STARLINK-35946", "OBJECT_ID": "2025-265G", "EPOCH": "2025-12-03T22:00:03.000096", "MEAN_MOTION": 15.7538769, "ECCENTRICITY": 0.00017743, "INCLINATION": 42.9994, "RA_OF_ASC_NODE": 106.2796, "ARG_OF_PERICENTER": 271.1314, "MEAN_ANOMALY": 326.2765, "EPHEMERIS_TYPE": 0, "CLASSIFICATION_TYPE": "U", "NORAD_CAT_ID": 66522, "ELEMENT_SET_NO": 999, "REV_AT_EPOCH": 357, "BSTAR": -0.0062505773, "MEAN_MOTION_DOT": -0.00879588, "MEAN_MOTION_DDOT": 0}, "tle": {"line1": "1 66522U 25265G   25337.91670139 -.00879588  00000+0 -62506-2 0  9994", "line2": "2 66522  42.9994 106.2796 0001774 271.1314 326.2765 15.75387690  3576"}}, "geometry": {"type": "Point", "coordinates": [-102.35418524083005, 21.968901429160532]}}, {"type": "Feature", "properties": {"norad_id": 66523, "name": "STARLINK-35969", "group": "last-30-days", "lat": 20.77982456064271, "lon": -100.73697366987997, "alt_km": 343.3008879793415, "timestamp": "2025-12-04T09:47:36.302635+00:00", "meta": {"OBJECT_NAME": "STARLINK-35969", "OBJECT_ID": "2025-265H", "EPOCH": "2025-12-03T22:00:03.000096", "MEAN_MOTION": 15.7539668, "ECCENTRICITY": 0.00011446, "INCLINATION": 42.9996, "RA_OF_ASC_NODE": 106.2749, "ARG_OF_PERICENTER": 257.5477, "MEAN_ANOMALY": 341.771, "EPHEMERIS_TYPE": 0, "CLASSIFICATION_TYPE": "U", "NORAD_CAT_ID": 66523, "ELEMENT_SET_NO": 999, "REV_AT_EPOCH": 357, "BSTAR": -0.0063216545, "MEAN_MOTION_DOT": -0.0088872, "MEAN_MOTION_DDOT": 0}, "tle": {"line1": "1 66523U 25265H   25337.91670139 -.00888720  00000+0 -63217-2 0  9993", "line2": "2 66523  42.9996 106.2749 0001144 257.5477 341.7710 15.75396680  3577"}}, "geometry": {"type": "Point", "coordinates": [-100.73697366987997, 20.77982456064271]}}, {"type": "Feature", "properties": {"norad_id": 66524, "name": "STARLINK-35687", "group": "last-30-days", "lat": 19.579329336855537, "lon": -99.1505978602793, "alt_km": 343.8536568737982, "timestamp": "2025-12-04T09:47:36.302645+00:00", "meta": {"OBJECT_NAME": "STARLINK-35687", "OBJECT_ID": "2025-265J", "EPOCH": "2025-12-03T22:00:03.000096", "MEAN_MOTION": 15.75394692, "ECCENTRICITY": 0.00016647, "INCLINATION": 42.9996, "RA_OF_ASC_NODE": 106.2697, "ARG_OF_PERICENTER": 269.0729, "MEAN_ANOMALY": 332.1722, "EPHEMERIS_TYPE": 0, "CLASSIFICATION_TYPE": "U", "NORAD_CAT_ID": 66524, "ELEMENT_SET_NO": 999, "REV_AT_EPOCH": 357, "BSTAR": -0.0063535587, "MEAN_MOTION_DOT": -0.00892867, "MEAN_MOTION_DDOT": 0}, "tle": {"line1": "1 66524U 25265J   25337.91670139 -.00892867  00000+0 -63536-2 0  9995", "line2": "2 66524  42.9996 106.2697 0001664 269.0729 332.1722 15.75394692  3573"}}, "geometry": {"type": "Point", "coordinates": [-99.1505978602793, 19.579329336855537]}}, {"type": "Feature", "properties": {"norad_id": 66525, "name": "STARLINK-35975", "group": "last-30-days", "lat": 18.36485078007584, "lon": -97.5869177096048, "alt_km": 343.6587101731966, "timestamp": "2025-12-04T09:47:36.302655+00:00", "meta": {"OBJECT_NAME": "STARLINK-35975", "OBJECT_ID": "2025-265K", "EPOCH": "2025-12-03T22:00:03.000096", "MEAN_MOTION": 15.75391401, "ECCENTRICITY": 0.00015651, "INCLINATION": 42.9995, "RA_OF_ASC_NODE": 106.2653, "ARG_OF_PERICENTER": 254.9776, "MEAN_ANOMALY": 348.1801, "EPHEMERIS_TYPE": 0, "CLASSIFICATION_TYPE": "U", "NORAD_CAT_ID": 66525, "ELEMENT_SET_NO": 999, "REV_AT_EPOCH": 357, "BSTAR": -0.0062798007, "MEAN_MOTION_DOT": -0.0088336, "MEAN_MOTION_DDOT": 0}, "tle": {"line1": "1 66525U 25265K   25337.91670139 -.00883360  00000+0 -62798-2 0  9993", "line2": "2 66525  42.9995 106.2653 0001565 254.9776 348.1801 15.75391401  3570"}}, "geometry": {"type": "Point", "coordinates": [-97.5869177096048, 18.36485078007584]}}, {"type": "Feature", "properties": {"norad_id": 66526, "name": "STARLINK-35932", "group": "last-30-days", "lat": 17.14123485861749, "lon": -96.04985415489007, "alt_km": 344.1916792201655, "timestamp": "2025-12-04T09:47:36.302669+00:00", "meta": {"OBJECT_NAME": "STARLINK-35932", "OBJECT_ID": "2025-265L", "EPOCH": "2025-12-03T22:00:03.000096", "MEAN_MOTION": 15.75380333, "ECCENTRICITY": 0.00020413, "INCLINATION": 42.9996, "RA_OF_ASC_NODE": 106.2605, "ARG_OF_PERICENTER": 266.5533, "MEAN_ANOMALY": 338.5258, "EPHEMERIS_TYPE": 0, "CLASSIFICATION_TYPE": "U", "NORAD_CAT_ID": 66526, "ELEMENT_SET_NO": 999, "REV_AT_EPOCH": 346, "BSTAR": -0.0061924974, "MEAN_MOTION_DOT": -0.00872035, "MEAN_MOTION_DDOT": 0}, "tle": {"line1": "1 66526U 25265L   25337.91670139 -.00872035  00000+0 -61925-2 0  9992", "line2": "2 66526  42.9996 106.2605 0002041 266.5533 338.5258 15.75380333  3468"}}, "geometry": {"type": "Point", "coordinates": [-96.04985415489007, 17.14123485861749]}}, {"type": "Feature", "properties": {"norad_id": 66527, "name": "STARLINK-35935", "group": "last-30-days", "lat": 15.895488814533877, "lon": -94.51992081693989, "alt_km": 344.08129826302593, "timestamp": "2025-12-04T09:47:36.302680+00:00", "meta": {"OBJECT_NAME": "STARLINK-35935", "OBJECT_ID": "2025-265M", "EPOCH": "2025-12-03T22:00:03.000096", "MEAN_MOTION": 15.75546224, "ECCENTRICITY": 7.889e-05, "INCLINATION": 42.9996, "RA_OF_ASC_NODE": 106.2563, "ARG_OF_PERICENTER": 270.7934, "MEAN_ANOMALY": 336.0834, "EPHEMERIS_TYPE": 0, "CLASSIFICATION_TYPE": "U", "NORAD_CAT_ID": 66527, "ELEMENT_SET_NO": 999, "REV_AT_EPOCH": 357, "BSTAR": -0.0074902605, "MEAN_MOTION_DOT": -0.01058434, "MEAN_MOTION_DDOT": 0}, "tle": {"line1": "1 66527U 25265M   25337.91670139 -.01058434  00000+0 -74903-2 0  9993", "line2": "2 66527  42.9996 106.2563 0000788 270.7934 336.0834 15.75546224  3578"}}, "geometry": {"type": "Point", "coordinates": [-94.51992081693989, 15.895488814533877]}}, {"type": "Feature", "properties": {"norad_id": 66528, "name": "STARLINK-35928", "group": "last-30-days", "lat": 14.648000728760529, "lon": -93.02014634165039, "alt_km": 344.13485048083567, "timestamp": "2025-12-04T09:47:36.302692+00:00", "meta": {"OBJECT_NAME": "STARLINK-35928", "OBJECT_ID": "2025-265N", "EPOCH": "2025-12-03T22:00:03.000096", "MEAN_MOTION": 15.75391824, "ECCENTRICITY": 0.00016273, "INCLINATION": 42.9997, "RA_OF_ASC_NODE": 106.251, "ARG_OF_PERICENTER": 255.2195, "MEAN_ANOMALY": 353.6879, "EPHEMERIS_TYPE": 0, "CLASSIFICATION_TYPE": "U", "NORAD_CAT_ID": 66528, "ELEMENT_SET_NO": 999, "REV_AT_EPOCH": 357, "BSTAR": -0.0062820329, "MEAN_MOTION_DOT": -0.00883679, "MEAN_MOTION_DDOT": 0}, "tle": {"line1": "1 66528U 25265N   25337.91670139 -.00883679  00000+0 -62820-2 0  9995", "line2": "2 66528  42.9997 106.2510 0001627 255.2195 353.6879 15.75391824  3570"}}, "geometry": {"type": "Point", "coordinates": [-93.02014634165039, 14.648000728760529]}}, {"type": "Feature", "properties": {"norad_id": 66529, "name": "STARLINK-35933", "group": "last-30-days", "lat": 13.389238856476966, "lon": -91.53557276605171, "alt_km": 344.2928556896877, "timestamp": "2025-12-04T09:47:36.302704+00:00", "meta": {"OBJECT_NAME": "STARLINK-35933", "OBJECT_ID": "2025-265P", "EPOCH": "2025-12-03T22:00:03.000096", "MEAN_MOTION": 15.75354918, "ECCENTRICITY": 0.0001663, "INCLINATION": 42.9997, "RA_OF_ASC_NODE": 106.2459, "ARG_OF_PERICENTER": 259.2996, "MEAN_ANOMALY": 351.528, "EPHEMERIS_TYPE": 0, "CLASSIFICATION_TYPE": "U", "NORAD_CAT_ID": 66529, "ELEMENT_SET_NO": 999, "REV_AT_EPOCH": 357, "BSTAR": -0.0058322292, "MEAN_MOTION_DOT": -0.00824938, "MEAN_MOTION_DDOT": 0}, "tle": {"line1": "1 66529U 25265P   25337.91670139 -.00824938  00000+0 -58322-2 0  9991", "line2": "2 66529  42.9997 106.2459 0001663 259.2996 351.5280 15.75354918  3572"}}, "geometry": {"type": "Point", "coordinates": [-91.53557276605171, 13.389238856476966]}}]}